[
  {
    "name": "MOLNIYA 2-14",
    "line1": "1 08195U 75081A   06176.33215444  .00000099  00000-0  11873-3 0   813",
    "line2": "2 08195  64.1586 279.0717 6877146 264.7651  20.2257  2.00491383225656",
    "samples": [
      {
        "tsince_minutes": 0.0,
        "position_km": [2349.89483350, -14785.93811562, 0.02119378],
        "velocity_km_s": [2.721488096, -3.256811655, 4.498416672]
      },
      {
        "tsince_minutes": 120.0,
        "position_km": [15223.91713658, -17852.95881713, 25280.39558224],
        "velocity_km_s": [1.079041732, 0.875187372, 2.485682813]
      },
      {
        "tsince_minutes": 720.0,
        "position_km": [2622.13222207, -15125.15464924, 474.51048398],
        "velocity_km_s": [2.688287199, -3.078426664, 4.494979530]
      }
    ]
  },
  {
    "name": "ITALSAT 2",
    "line1": "1 24208U 96044A   06177.04061740 -.00000094  00000-0  10000-3 0  1600",
    "line2": "2 24208   3.8536  80.0121 0026640 311.0977  48.3000  1.00778054 36119",
    "samples": [
      {
        "tsince_minutes": 0.0,
        "position_km": [7534.10987189, 41266.39266843, -0.10801028],
        "velocity_km_s": [-3.027168008, 0.558848996, 0.207982755]
      },
      {
        "tsince_minutes": 120.0,
        "position_km": [-14289.19940414, 39469.05530051, 1428.62838591],
        "velocity_km_s": [-2.893205245, -1.045447840, 0.179634249]
      },
      {
        "tsince_minutes": 1440.0,
        "position_km": [5501.08137100, 41590.27784405, 138.32522930],
        "velocity_km_s": [-3.050691874, 0.409203052, 0.207958133]
      }
    ]
  },
  {
    "name": "NAVSTAR 53 (USA 175)",
    "line1": "1 28129U 03058A   06175.57071136 -.00000104  00000-0  10000-3 0   459",
    "line2": "2 28129  54.7298 324.8098 0048506 266.2640  93.1663  2.00562768 18443",
    "samples": [
      {
        "tsince_minutes": 0.0,
        "position_km": [21707.46412351, -15318.61752390, 0.13551152],
        "velocity_km_s": [1.304029214, 1.816904974, 3.161919976]
      },
      {
        "tsince_minutes": 120.0,
        "position_km": [18616.75971861, 3166.15177043, 18833.41523210],
        "velocity_km_s": [-2.076122016, 2.838457575, 1.586210535]
      },
      {
        "tsince_minutes": 1440.0,
        "position_km": [22002.20074562, -14879.72595593, 774.32827099],
        "velocity_km_s": [1.191573619, 1.894561165, 3.159953047]
      }
    ]
  },
  {
    "name": "XM-3",
    "line1": "1 28626U 05008A   06176.46683397 -.00000205  00000-0  10000-3 0  2190",
    "line2": "2 28626   0.0019 286.9433 0000335  13.7918  55.6504  1.00270176  4891",
    "samples": [
      {
        "tsince_minutes": 0.0,
        "position_km": [42080.71852213, -2646.86387436, 0.81851294],
        "velocity_km_s": [0.193105177, 3.068688251, 0.000438449]
      },
      {
        "tsince_minutes": 1200.0,
        "position_km": [19282.77774728, -37495.59250598, -2.71861462],
        "velocity_km_s": [2.734400524, 1.406220933, 0.000103486]
      }
    ]
  }
]
